{
  "type": "FeatureCollection",
  "features": [
    {
      "type": "Feature",
      "properties": {
        "norad_id": 66967,
        "name": "STARLINK-36136",
        "group": "last-30-days",
        "lat": -42.73621195993912,
        "lon": 21.458080373773,
        "alt_km": 331.98236022445144,
        "timestamp": "2025-12-20T14:38:00.691346+00:00",
        "meta_object_name": "STARLINK-36136",
        "meta_object_id": "2025-288J",
        "meta_epoch": "2025-12-20T06:00:02.999808",
        "meta_mean_motion": 15.8125482,
        "meta_eccentricity": 0.00017535,
        "meta_inclination": 43.0013,
        "meta_ra_of_asc_node": 121.1389,
        "meta_arg_of_pericenter": 266.8243,
        "meta_mean_anomaly": 108.2849,
        "meta_ephemeris_type": 0,
        "meta_classification_type": "U",
        "meta_norad_cat_id": 66967,
        "meta_element_set_no": 999,
        "meta_rev_at_epoch": 303,
        "meta_bstar": -0.0074630076,
        "meta_mean_motion_dot": -0.01330161,
        "meta_mean_motion_ddot": 0,
        "tle_line1": "1 66967U 25288J   25354.25003472 -.01330161  00000+0 -74630-2 0  9999",
        "tle_line2": "2 66967  43.0013 121.1389 0001753 266.8243 108.2849 15.81254820  3033"
      },
      "geometry": {
        "type": "Point",
        "coordinates": [
          21.458080373773,
          -42.73621195993912
        ]
      }
    },
    {
      "type": "Feature",
      "properties": {
        "norad_id": 66968,
        "name": "STARLINK-36152",
        "group": "last-30-days",
        "lat": -42.906359688153486,
        "lon": 24.807826900858004,
        "alt_km": 332.1670225848766,
        "timestamp": "2025-12-20T14:38:00.691358+00:00",
        "meta_object_name": "STARLINK-36152",
        "meta_object_id": "2025-288K",
        "meta_epoch": "2025-12-20T06:00:02.999808",
        "meta_mean_motion": 15.81203767,
        "meta_eccentricity": 0.00017283,
        "meta_inclination": 43.0014,
        "meta_ra_of_asc_node": 121.1326,
        "meta_arg_of_pericenter": 270.397,
        "meta_mean_anomaly": 107.2535,
        "meta_ephemeris_type": 0,
        "meta_classification_type": "U",
        "meta_norad_cat_id": 66968,
        "meta_element_set_no": 999,
        "meta_rev_at_epoch": 303,
        "meta_bstar": -0.0075164239,
        "meta_mean_motion_dot": -0.01361071,
        "meta_mean_motion_ddot": 0,
        "tle_line1": "1 66968U 25288K   25354.25003472 -.01361071  00000+0 -75164-2 0  9997",
        "tle_line2": "2 66968  43.0014 121.1326 0001728 270.3970 107.2535 15.81203767  3030"
      },
      "geometry": {
        "type": "Point",
        "coordinates": [
          24.807826900858004,
          -42.906359688153486
        ]
      }
    },
    {
      "type": "Feature",
      "properties": {
        "norad_id": 66969,
        "name": "STARLINK-36149",
        "group": "last-30-days",
        "lat": -42.436894257807836,
        "lon": 40.045960839670386,
        "alt_km": 332.74748008112056,
        "timestamp": "2025-12-20T14:38:00.691368+00:00",
        "meta_object_name": "STARLINK-36149",
        "meta_object_id": "2025-288L",
        "meta_epoch": "2025-12-20T06:00:02.999808",
        "meta_mean_motion": 15.81088984,
        "meta_eccentricity": 0.00014734,
        "meta_inclination": 43.0013,
        "meta_ra_of_asc_node": 121.1038,
        "meta_arg_of_pericenter": 275.2525,
        "meta_mean_anomaly": 113.8074,
        "meta_ephemeris_type": 0,
        "meta_classification_type": "U",
        "meta_norad_cat_id": 66969,
        "meta_element_set_no": 999,
        "meta_rev_at_epoch": 303,
        "meta_bstar": -0.0078356168,
        "meta_mean_motion_dot": -0.01405555,
        "meta_mean_motion_ddot": 0,
        "tle_line1": "1 66969U 25288L   25354.25003472 -.01405555  00000+0 -78356-2 0  9990",
        "tle_line2": "2 66969  43.0013 121.1038 0001473 275.2525 113.8074 15.81088984  3030"
      },
      "geometry": {
        "type": "Point",
        "coordinates": [
          40.045960839670386,
          -42.436894257807836
        ]
      }
    },
    {
      "type": "Feature",
      "properties": {
        "norad_id": 66970,
        "name": "STARLINK-35703",
        "group": "last-30-days",
        "lat": -40.64041278149992,
        "lon": 51.795892151651394,
        "alt_km": 333.0207811640039,
        "timestamp": "2025-12-20T14:38:00.691390+00:00",
        "meta_object_name": "STARLINK-35703",
        "meta_object_id": "2025-288M",
        "meta_epoch": "2025-12-20T06:00:02.999808",
        "meta_mean_motion": 15.81001111,
        "meta_eccentricity": 0.00015576,
        "meta_inclination": 43.0012,
        "meta_ra_of_asc_node": 121.0806,
        "meta_arg_of_pericenter": 275.3018,
        "meta_mean_anomaly": 122.9018,
        "meta_ephemeris_type": 0,
        "meta_classification_type": "U",
        "meta_norad_cat_id": 66970,
        "meta_element_set_no": 999,
        "meta_rev_at_epoch": 303,
        "meta_bstar": -0.0082358664,
        "meta_mean_motion_dot": -0.01463741,
        "meta_mean_motion_ddot": 0,
        "tle_line1": "1 66970U 25288M   25354.25003472 -.01463741  00000+0 -82359-2 0  9991",
        "tle_line2": "2 66970  43.0012 121.0806 0001557 275.3018 122.9018 15.81001111  3030"
      },
      "geometry": {
        "type": "Point",
        "coordinates": [
          51.795892151651394,
          -40.64041278149992
        ]
      }
    },
    {
      "type": "Feature",
      "properties": {
        "norad_id": 66971,
        "name": "STARLINK-35678",
        "group": "last-30-days",
        "lat": -42.96928340715489,
        "lon": 27.30554961973665,
        "alt_km": 332.09864207759165,
        "timestamp": "2025-12-20T14:38:00.691401+00:00",
        "meta_object_name": "STARLINK-35678",
        "meta_object_id": "2025-288N",
        "meta_epoch": "2025-12-20T06:00:02.999808",
        "meta_mean_motion": 15.81229851,
        "meta_eccentricity": 0.00017421,
        "meta_inclination": 43.0017,
        "meta_ra_of_asc_node": 121.1285,
        "meta_arg_of_pericenter": 271.6117,
        "meta_mean_anomaly": 107.8437,
        "meta_ephemeris_type": 0,
        "meta_classification_type": "U",
        "meta_norad_cat_id": 66971,
        "meta_element_set_no": 999,
        "meta_rev_at_epoch": 303,
        "meta_bstar": -0.0075433501,
        "meta_mean_motion_dot": -0.01366926,
        "meta_mean_motion_ddot": 0,
        "tle_line1": "1 66971U 25288N   25354.25003472 -.01366926  00000+0 -75434-2 0  9995",
        "tle_line2": "2 66971  43.0017 121.1285 0001742 271.6117 107.8437 15.81229851  3033"
      },
      "geometry": {
        "type": "Point",
        "coordinates": [
          27.30554961973665,
          -42.96928340715489
        ]
      }
    },
    {
      "type": "Feature",
      "properties": {
        "norad_id": 66972,
        "name": "STARLINK-34846",
        "group": "last-30-days",
        "lat": -42.96756898876392,
        "lon": 30.646881112868893,
        "alt_km": 332.2475301910299,
        "timestamp": "2025-12-20T14:38:00.691413+00:00",
        "meta_object_name": "STARLINK-34846",
        "meta_object_id": "2025-288P",
        "meta_epoch": "2025-12-20T06:00:02.999808",
        "meta_mean_motion": 15.81183933,
        "meta_eccentricity": 0.00017531,
        "meta_inclination": 43.0015,
        "meta_ra_of_asc_node": 121.1218,
        "meta_arg_of_pericenter": 272.3772,
        "meta_mean_anomaly": 109.5978,
        "meta_ephemeris_type": 0,
        "meta_classification_type": "U",
        "meta_norad_cat_id": 66972,
        "meta_element_set_no": 999,
        "meta_rev_at_epoch": 303,
        "meta_bstar": -0.0076367888,
        "meta_mean_motion_dot": -0.01379379,
        "meta_mean_motion_ddot": 0,
        "tle_line1": "1 66972U 25288P   25354.25003472 -.01379379  00000+0 -76368-2 0  9999",
        "tle_line2": "2 66972  43.0015 121.1218 0001753 272.3772 109.5978 15.81183933  3034"
      },
      "geometry": {
        "type": "Point",
        "coordinates": [
          30.646881112868893,
          -42.96756898876392
        ]
      }
    },
    {
      "type": "Feature",
      "properties": {
        "norad_id": 66973,
        "name": "STARLINK-35778",
        "group": "last-30-days",
        "lat": -42.877999726122766,
        "lon": 33.7735519700958,
        "alt_km": 332.3625556325551,
        "timestamp": "2025-12-20T14:38:00.691423+00:00",
        "meta_object_name": "STARLINK-35778",
        "meta_object_id": "2025-288Q",
        "meta_epoch": "2025-12-20T06:00:02.999808",
        "meta_mean_motion": 15.8115457,
        "meta_eccentricity": 0.00017299,
        "meta_inclination": 43.0018,
        "meta_ra_of_asc_node": 121.1161,
        "meta_arg_of_pericenter": 272.6287,
        "meta_mean_anomaly": 111.6877,
        "meta_ephemeris_type": 0,
        "meta_classification_type": "U",
        "meta_norad_cat_id": 66973,
        "meta_element_set_no": 999,
        "meta_rev_at_epoch": 303,
        "meta_bstar": -0.0077025349,
        "meta_mean_motion_dot": -0.0138824,
        "meta_mean_motion_ddot": 0,
        "tle_line1": "1 66973U 25288Q   25354.25003472 -.01388240  00000+0 -77025-2 0  9998",
        "tle_line2": "2 66973  43.0018 121.1161 0001729 272.6287 111.6877 15.81154570  3039"
      },
      "geometry": {
        "type": "Point",
        "coordinates": [
          33.7735519700958,
          -42.877999726122766
        ]
      }
    }
  ]
}